[{"OBJECT_NAME":"ONEWEB-0316","OBJECT_ID":"2021-075AD","EPOCH":"2026-03-09T20:04:36.388992","MEAN_MOTION":13.18684907,"ECCENTRICITY":0.00016971,"INCLINATION":87.9244,"RA_OF_ASC_NODE":355.1949,"ARG_OF_PERICENTER":81.9274,"MEAN_ANOMALY":278.205,"EPHEMERIS_TYPE":0,"CLASSIFICATION_TYPE":"U","NORAD_CAT_ID":49102,"ELEMENT_SET_NO":999,"REV_AT_EPOCH":22411,"BSTAR":0.00027738065,"MEAN_MOTION_DOT":1.22e-6,"MEAN_MOTION_DDOT":0},{"OBJECT_NAME":"DELTA 1 DEB","OBJECT_ID":"1973-086HQ","EPOCH":"2026-03-07T03:32:56.628096","MEAN_MOTION":12.76469094,"ECCENTRICITY":0.03007813,"INCLINATION":102.22,"RA_OF_ASC_NODE":297.755,"ARG_OF_PERICENTER":154.7917,"MEAN_ANOMALY":0.1601,"EPHEMERIS_TYPE":0,"CLASSIFICATION_TYPE":"U","NORAD_CAT_ID":42576,"ELEMENT_SET_NO":999,"REV_AT_EPOCH":57245,"BSTAR":0.00042651401,"MEAN_MOTION_DOT":6.1e-7,"MEAN_MOTION_DDOT":0}]
